[{"OBJECT_NAME":"SUOMI NPP","OBJECT_ID":"2011-061A","EPOCH":"2026-03-09T22:54:45.266976","MEAN_MOTION":14.19543747,"ECCENTRICITY":4.741e-5,"INCLINATION":98.7869,"RA_OF_ASC_NODE":10.5553,"ARG_OF_PERICENTER":227.8224,"MEAN_ANOMALY":132.2912,"EPHEMERIS_TYPE":0,"CLASSIFICATION_TYPE":"U","NORAD_CAT_ID":37849,"ELEMENT_SET_NO":999,"REV_AT_EPOCH":74436,"BSTAR":8.9047431e-5,"MEAN_MOTION_DOT":1.43e-6,"MEAN_MOTION_DDOT":0},{"OBJECT_NAME":"CZ-6A DEB","OBJECT_ID":"2022-151L","EPOCH":"2026-03-09T22:58:03.341568","MEAN_MOTION":14.43617515,"ECCENTRICITY":0.01298864,"INCLINATION":98.6257,"RA_OF_ASC_NODE":119.5331,"ARG_OF_PERICENTER":258.3246,"MEAN_ANOMALY":100.3344,"EPHEMERIS_TYPE":0,"CLASSIFICATION_TYPE":"U","NORAD_CAT_ID":54269,"ELEMENT_SET_NO":999,"REV_AT_EPOCH":17447,"BSTAR":0.00011029382,"MEAN_MOTION_DOT":3.62e-6,"MEAN_MOTION_DDOT":0}]
